CCSDS_OMM_VERS = 2.0
CREATION_DATE  = 
ORIGINATOR     = 

OBJECT_NAME    = STARLINK-36701
OBJECT_ID      = 2026-022L
CENTER_NAME    = EARTH
REF_FRAME      = TEME
TIME_SYSTEM    = UTC
MEAN_ELEMENT_THEORY = SGP/SGP4

EPOCH          = 2026-03-02T02:11:24.044064
MEAN_MOTION    = 15.75178415
ECCENTRICITY   = .0000757
INCLINATION    = 97.2833
RA_OF_ASC_NODE = 94.7058
ARG_OF_PERICENTER = 80.6647
MEAN_ANOMALY   = 279.4704

EPHEMERIS_TYPE = 0
CLASSIFICATION_TYPE = U
NORAD_CAT_ID   = 67658
ELEMENT_SET_NO = 999
REV_AT_EPOCH   = 435
BSTAR          = .11572E-2
MEAN_MOTION_DOT = .175991E-2
MEAN_MOTION_DDOT = 0

CCSDS_OMM_VERS = 2.0
CREATION_DATE  = 
ORIGINATOR     = 

OBJECT_NAME    = STARLINK-36642
OBJECT_ID      = 2026-022M
CENTER_NAME    = EARTH
REF_FRAME      = TEME
TIME_SYSTEM    = UTC
MEAN_ELEMENT_THEORY = SGP/SGP4

EPOCH          = 2026-03-02T02:09:52.732224
MEAN_MOTION    = 15.75212238
ECCENTRICITY   = .0001682
INCLINATION    = 97.2851
RA_OF_ASC_NODE = 94.7074
ARG_OF_PERICENTER = 85.3039
MEAN_ANOMALY   = 274.8419

EPHEMERIS_TYPE = 0
CLASSIFICATION_TYPE = U
NORAD_CAT_ID   = 67659
ELEMENT_SET_NO = 999
REV_AT_EPOCH   = 435
BSTAR          = .46602E-3
MEAN_MOTION_DOT = .70021E-3
MEAN_MOTION_DDOT = 0

CCSDS_OMM_VERS = 2.0
CREATION_DATE  = 
ORIGINATOR     = 

OBJECT_NAME    = STARLINK-36673
OBJECT_ID      = 2026-022N
CENTER_NAME    = EARTH
REF_FRAME      = TEME
TIME_SYSTEM    = UTC
MEAN_ELEMENT_THEORY = SGP/SGP4

EPOCH          = 2026-03-02T02:07:50.383776
MEAN_MOTION    = 15.75205765
ECCENTRICITY   = .0001216
INCLINATION    = 97.2833
RA_OF_ASC_NODE = 94.7087
ARG_OF_PERICENTER = 94.4578
MEAN_ANOMALY   = 265.6826

EPHEMERIS_TYPE = 0
CLASSIFICATION_TYPE = U
NORAD_CAT_ID   = 67660
ELEMENT_SET_NO = 999
REV_AT_EPOCH   = 435
BSTAR          = .92309E-3
MEAN_MOTION_DOT = .139927E-2
MEAN_MOTION_DDOT = 0

CCSDS_OMM_VERS = 2.0
CREATION_DATE  = 
ORIGINATOR     = 

OBJECT_NAME    = STARLINK-36674
OBJECT_ID      = 2026-022P
CENTER_NAME    = EARTH
REF_FRAME      = TEME
TIME_SYSTEM    = UTC
MEAN_ELEMENT_THEORY = SGP/SGP4

EPOCH          = 2026-03-02T02:05:47.714784
MEAN_MOTION    = 15.75222099
ECCENTRICITY   = .0001674
INCLINATION    = 97.2828
RA_OF_ASC_NODE = 94.7103
ARG_OF_PERICENTER = 84.2546
MEAN_ANOMALY   = 275.8910

EPHEMERIS_TYPE = 0
CLASSIFICATION_TYPE = U
NORAD_CAT_ID   = 67661
ELEMENT_SET_NO = 999
REV_AT_EPOCH   = 435
BSTAR          = -.2034E-3
MEAN_MOTION_DOT = -.30404E-3
MEAN_MOTION_DDOT = 0

CCSDS_OMM_VERS = 2.0
CREATION_DATE  = 
ORIGINATOR     = 

OBJECT_NAME    = STARLINK-36700
OBJECT_ID      = 2026-022Q
CENTER_NAME    = EARTH
REF_FRAME      = TEME
TIME_SYSTEM    = UTC
MEAN_ELEMENT_THEORY = SGP/SGP4

EPOCH          = 2026-03-02T02:02:45.521376
MEAN_MOTION    = 15.75207790
ECCENTRICITY   = .0001445
INCLINATION    = 97.2831
RA_OF_ASC_NODE = 94.7127
ARG_OF_PERICENTER = 77.5528
MEAN_ANOMALY   = 282.5899

EPHEMERIS_TYPE = 0
CLASSIFICATION_TYPE = U
NORAD_CAT_ID   = 67662
ELEMENT_SET_NO = 999
REV_AT_EPOCH   = 435
BSTAR          = .96816E-3
MEAN_MOTION_DOT = .146901E-2
MEAN_MOTION_DDOT = 0

CCSDS_OMM_VERS = 2.0
CREATION_DATE  = 
ORIGINATOR     = 

OBJECT_NAME    = STARLINK-36675
OBJECT_ID      = 2026-022R
CENTER_NAME    = EARTH
REF_FRAME      = TEME
TIME_SYSTEM    = UTC
MEAN_ELEMENT_THEORY = SGP/SGP4

EPOCH          = 2026-03-02T02:04:47.757504
MEAN_MOTION    = 15.75231614
ECCENTRICITY   = .0001548
INCLINATION    = 97.2835
RA_OF_ASC_NODE = 94.7118
ARG_OF_PERICENTER = 78.9560
MEAN_ANOMALY   = 281.1880

EPHEMERIS_TYPE = 0
CLASSIFICATION_TYPE = U
NORAD_CAT_ID   = 67663
ELEMENT_SET_NO = 999
REV_AT_EPOCH   = 435
BSTAR          = .81679E-3
MEAN_MOTION_DOT = .123703E-2
MEAN_MOTION_DDOT = 0

CCSDS_OMM_VERS = 2.0
CREATION_DATE  = 
ORIGINATOR     = 

OBJECT_NAME    = STARLINK-36404
OBJECT_ID      = 2026-022S
CENTER_NAME    = EARTH
REF_FRAME      = TEME
TIME_SYSTEM    = UTC
MEAN_ELEMENT_THEORY = SGP/SGP4

EPOCH          = 2026-03-02T02:00:12.873312
MEAN_MOTION    = 15.75209510
ECCENTRICITY   = .0001559
INCLINATION    = 97.2832
RA_OF_ASC_NODE = 94.7155
ARG_OF_PERICENTER = 26.0404
MEAN_ANOMALY   = 334.0939

EPHEMERIS_TYPE = 0
CLASSIFICATION_TYPE = U
NORAD_CAT_ID   = 67664
ELEMENT_SET_NO = 999
REV_AT_EPOCH   = 435
BSTAR          = .68267E-3
MEAN_MOTION_DOT = .103019E-2
MEAN_MOTION_DDOT = 0

CCSDS_OMM_VERS = 2.0
CREATION_DATE  = 
ORIGINATOR     = 

OBJECT_NAME    = STARLINK-36399
OBJECT_ID      = 2026-022T
CENTER_NAME    = EARTH
REF_FRAME      = TEME
TIME_SYSTEM    = UTC
MEAN_ELEMENT_THEORY = SGP/SGP4

EPOCH          = 2026-03-02T01:59:11.626944
MEAN_MOTION    = 15.75179387
ECCENTRICITY   = .0001838
INCLINATION    = 97.2846
RA_OF_ASC_NODE = 94.7168
ARG_OF_PERICENTER = 90.3375
MEAN_ANOMALY   = 269.8101

EPHEMERIS_TYPE = 0
CLASSIFICATION_TYPE = U
NORAD_CAT_ID   = 67665
ELEMENT_SET_NO = 999
REV_AT_EPOCH   = 435
BSTAR          = .79231E-3
MEAN_MOTION_DOT = .119666E-2
MEAN_MOTION_DDOT = 0

CCSDS_OMM_VERS = 2.0
CREATION_DATE  = 
ORIGINATOR     = 

OBJECT_NAME    = STARLINK-36365
OBJECT_ID      = 2026-022U
CENTER_NAME    = EARTH
REF_FRAME      = TEME
TIME_SYSTEM    = UTC
MEAN_ELEMENT_THEORY = SGP/SGP4

EPOCH          = 2026-03-02T01:57:10.350720
MEAN_MOTION    = 15.75236671
ECCENTRICITY   = .0001675
INCLINATION    = 97.2837
RA_OF_ASC_NODE = 94.7192
ARG_OF_PERICENTER = 134.5989
MEAN_ANOMALY   = 225.5413

EPHEMERIS_TYPE = 0
CLASSIFICATION_TYPE = U
NORAD_CAT_ID   = 67666
ELEMENT_SET_NO = 999
REV_AT_EPOCH   = 435
BSTAR          = .10706E-2
MEAN_MOTION_DOT = .162974E-2
MEAN_MOTION_DDOT = 0

CCSDS_OMM_VERS = 2.0
CREATION_DATE  = 
ORIGINATOR     = 

OBJECT_NAME    = STARLINK-36622
OBJECT_ID      = 2026-022V
CENTER_NAME    = EARTH
REF_FRAME      = TEME
TIME_SYSTEM    = UTC
MEAN_ELEMENT_THEORY = SGP/SGP4

EPOCH          = 2026-03-02T01:54:37.967904
MEAN_MOTION    = 15.75222774
ECCENTRICITY   = .0001093
INCLINATION    = 97.2833
RA_OF_ASC_NODE = 94.7208
ARG_OF_PERICENTER = 85.5001
MEAN_ANOMALY   = 274.6389

EPHEMERIS_TYPE = 0
CLASSIFICATION_TYPE = U
NORAD_CAT_ID   = 67667
ELEMENT_SET_NO = 999
REV_AT_EPOCH   = 435
BSTAR          = .82919E-3
MEAN_MOTION_DOT = .12556E-2
MEAN_MOTION_DDOT = 0

CCSDS_OMM_VERS = 2.0
CREATION_DATE  = 
ORIGINATOR     = 

OBJECT_NAME    = STARLINK-36625
OBJECT_ID      = 2026-022W
CENTER_NAME    = EARTH
REF_FRAME      = TEME
TIME_SYSTEM    = UTC
MEAN_ELEMENT_THEORY = SGP/SGP4

EPOCH          = 2026-03-02T01:52:35.973696
MEAN_MOTION    = 15.75220136
ECCENTRICITY   = .0001348
INCLINATION    = 97.2839
RA_OF_ASC_NODE = 94.7222
ARG_OF_PERICENTER = 95.3092
MEAN_ANOMALY   = 264.8327

EPHEMERIS_TYPE = 0
CLASSIFICATION_TYPE = U
NORAD_CAT_ID   = 67668
ELEMENT_SET_NO = 999
REV_AT_EPOCH   = 435
BSTAR          = .70475E-3
MEAN_MOTION_DOT = .106446E-2
MEAN_MOTION_DDOT = 0

CCSDS_OMM_VERS = 2.0
CREATION_DATE  = 
ORIGINATOR     = 

OBJECT_NAME    = STARLINK-36639
OBJECT_ID      = 2026-022X
CENTER_NAME    = EARTH
REF_FRAME      = TEME
TIME_SYSTEM    = UTC
MEAN_ELEMENT_THEORY = SGP/SGP4

EPOCH          = 2026-03-02T01:50:03.544224
MEAN_MOTION    = 15.75225748
ECCENTRICITY   = .0001381
INCLINATION    = 97.2840
RA_OF_ASC_NODE = 94.7245
ARG_OF_PERICENTER = 58.0802
MEAN_ANOMALY   = 302.0597

EPHEMERIS_TYPE = 0
CLASSIFICATION_TYPE = U
NORAD_CAT_ID   = 67669
ELEMENT_SET_NO = 999
REV_AT_EPOCH   = 435
BSTAR          = .7657E-3
MEAN_MOTION_DOT = .115819E-2
MEAN_MOTION_DDOT = 0

