STARLINK-36701          
1 67658U 26022L   26061.09125051  .00175991  00000+0  11572-2 0  9991
2 67658  97.2833  94.7058 0000757  80.6647 279.4704 15.75178415  4358
STARLINK-36642          
1 67659U 26022M   26061.09019366  .00070021  00000+0  46602-3 0  9994
2 67659  97.2851  94.7074 0001682  85.3039 274.8419 15.75212238  4356
STARLINK-36673          
1 67660U 26022N   26061.08877759  .00139927  00000+0  92309-3 0  9999
2 67660  97.2833  94.7087 0001216  94.4578 265.6826 15.75205765  4351
STARLINK-36674          
1 67661U 26022P   26061.08735781 -.00030404  00000+0 -20340-3 0  9996
2 67661  97.2828  94.7103 0001674  84.2546 275.8910 15.75222099  4351
STARLINK-36700          
1 67662U 26022Q   26061.08524909  .00146901  00000+0  96816-3 0  9994
2 67662  97.2831  94.7127 0001445  77.5528 282.5899 15.75207790  4355
STARLINK-36675          
1 67663U 26022R   26061.08666386  .00123703  00000+0  81679-3 0  9997
2 67663  97.2835  94.7118 0001548  78.9560 281.1880 15.75231614  4352
STARLINK-36404          
1 67664U 26022S   26061.08348233  .00103019  00000+0  68267-3 0  9992
2 67664  97.2832  94.7155 0001559  26.0404 334.0939 15.75209510  4357
STARLINK-36399          
1 67665U 26022T   26061.08277346  .00119666  00000+0  79231-3 0  9997
2 67665  97.2846  94.7168 0001838  90.3375 269.8101 15.75179387  4352
STARLINK-36365          
1 67666U 26022U   26061.08136980  .00162974  00000+0  10706-2 0  9997
2 67666  97.2837  94.7192 0001675 134.5989 225.5413 15.75236671  4356
STARLINK-36622          
1 67667U 26022V   26061.07960611  .00125560  00000+0  82919-3 0  9999
2 67667  97.2833  94.7208 0001093  85.5001 274.6389 15.75222774  4351
STARLINK-36625          
1 67668U 26022W   26061.07819414  .00106446  00000+0  70475-3 0  9990
2 67668  97.2839  94.7222 0001348  95.3092 264.8327 15.75220136  4359
STARLINK-36639          
1 67669U 26022X   26061.07642991  .00115819  00000+0  76570-3 0  9991
2 67669  97.2840  94.7245 0001381  58.0802 302.0597 15.75225748  4357
